{
  "norad_id": 48374,
  "name": "STARLINK-2604",
  "history": [
    {
      "epoch": "2026-03-28T21:28:58.875168Z",
      "apogee_km": 475.85570762249154,
      "perigee_km": 474.71255697762444,
      "latitude_deg": -3.531073633538101e-05,
      "longitude_deg": 110.03494824800728,
      "height_km": 476.1092607209358,
      "semi_major_axis_km": 6853.421132300057,
      "eccentricity": 8.34e-05,
      "inclination_deg": 53.1574,
      "raan_deg": 258.5893,
      "arg_perigee_deg": 82.6362,
      "mean_anomaly_deg": 277.4733,
      "mean_motion_rev_day": 15.3017687
    }
  ]
}